KUIPER-00619            
1 69777U 26151Q   26199.55429294  .00012621  00000+0  33569-3 0  9998
2 69777  51.8809 163.9998 0002142  59.8022 300.3177 15.38593794  2534
KUIPER-00621            
1 69778U 26151R   26199.62165443  .00024675  00000+0  65034-3 0  9994
2 69778  51.8803 163.7041 0002560 127.4874 232.6347 15.38363011  2541
KUIPER-00622            
1 69779U 26151S   26199.44061039  .00008153  00000+0  23231-3 0  9997
2 69779  51.8742 164.7371 0006752 157.7973 202.3307 15.36968365  2512
KUIPER-00623            
1 69780U 26151T   26198.26556190  .00133416  00000+0  34980-2 0  9998
2 69780  51.8777 170.3650 0006129 146.6000 213.5375 15.37672053  2337
KUIPER-00626            
1 69781U 26151U   26199.38846122 -.00009712  00000+0 -27075-3 0  9991
2 69781  51.8720 165.1335 0007669 171.5528 188.5588 15.34990807  2503
KUIPER-00627            
1 69782U 26151V   26199.39056766 -.00047612  00000+0 -13894-2 0  9994
2 69782  51.8693 165.1438 0010822 175.1356 184.9736 15.34693182  2502
KUIPER-00629            
1 69783U 26151W   26199.83335647  .00048780  00000+0  16609-2 0  9994
2 69783  51.8784 162.9703 0006870 168.2182 156.5463 15.29905620  2905
KUIPER-00631            
1 69784U 26151X   26199.83335647 -.01085207  00000+0 -39009-1 0  9991
2 69784  51.8748 162.9532 0008439 168.1566 156.0841 15.30914509  1300
KUIPER-00634            
1 69785U 26151Y   26199.88773189  .00012966  00000+0  35348-3 0  9997
2 69785  51.8779 162.4879 0003602 144.1603 215.9626 15.37799885  2589
KUIPER-00639            
1 69786U 26151Z   26199.51570363  .00023193  00000+0  67781-3 0  9997
2 69786  51.8694 164.4837 0010080 174.1474 185.9631 15.35139815  2524
KUIPER-00641            
1 69787U 26151AA  26199.66671295  .00002779  00000+0  93043-4 0  9998
2 69787  51.8679 163.8314 0011939 170.4788 267.0344 15.34501817  3182
KUIPER-00644            
1 69788U 26151AB  26199.83335647  .00050607  00000+0  13982-2 0  9991
2 69788  51.8747 162.8945 0008399 171.9198 175.2832 15.36517909  3504
KUIPER-00646            
1 69789U 26151AC  26199.51463705  .00024178  00000+0  68987-3 0  9994
2 69789  51.8704 164.4782 0009142 177.9379 182.1646 15.35875674  2525
KUIPER-00647            
1 69790U 26151AD  26199.38929917 -.00001567  00000+0 -34049-4 0  9995
2 69790  51.8665 165.1337 0010638 176.4406 183.6657 15.35105780  2504
KUIPER-00662            
1 69791U 26151AE  26199.83568782  .00011019  00000+0  31424-3 0  9999
2 69791  51.8746 162.8842 0008303 171.4879 188.6250 15.36542483  2572
LINK                    
1 69792U 26152A   26199.55753721  .00092753  00000+0  77286-3 0  9999
2 69792  20.5910 301.5041 0024958  41.6624 318.5720 15.67914384  2384
2026-152B               
1 69793U 26152B   26199.57203027  .00033875  00000+0  31521-3 0  9993
2 69793  20.5978 301.6626 0023039  39.7805 320.4327 15.65017636  2384
ISS OBJECT YJ           
1 69794U 98067YJ  26199.40266446  .00018972  00000+0  33749-3 0  9999
2 69794  51.6313 145.5127 0007726 322.8487  37.1967 15.50153314  2493
ISS OBJECT YK           
1 69795U 98067YK  26199.13965566  .00035727  00000+0  61067-3 0  9990
2 69795  51.6313 146.7573 0006626 329.4507  30.6095 15.50914604  2459
ISS OBJECT YL           
1 69796U 98067YL  26199.07665547  .00028307  00000+0  49057-3 0  9991
2 69796  51.6315 147.0863 0008719 322.6666  37.3717 15.50628198  2437
ISS OBJECT YM           
1 69797U 98067YM  26199.14076886  .00029042  00000+0  50205-3 0  9996
2 69797  51.6314 146.7645 0009527 314.1271  45.8934 15.50677012  2431
ISS OBJECT YN           
1 69798U 98067YN  26199.07743515  .00018532  00000+0  32670-3 0  9997
2 69798  51.6317 147.0913 0009190 325.6783  34.3611 15.50414888  2444
PROVES-ELECTRA          
1 69799U 98067YP  26198.17400478  .00024046  00000+0  41820-3 0  9990
2 69799  51.6315 151.5587 0009700 310.8273  49.1874 15.50615173  2295
QIANFAN-201             
1 69800U 26153A   26199.18856381 -.01723216  00000+0 -84414+0 0  9990
2 69800  88.9921 358.7016 0006905 149.7286 210.4306 14.22000035  1979
QIANFAN-202             
1 69801U 26153B   26199.84951852  .00000171  00000+0  75477-4 0  9992
2 69801  88.9927 358.6330 0007089 163.4691 196.6730 14.18843900  2069
QIANFAN-203             
1 69802U 26153C   26199.34660293 -.01871829  00000+0 -99096+0 0  9991
2 69802  88.9920 358.6881 0012649 191.3457 168.7448 14.17511061  1998
QIANFAN-204             
1 69803U 26153D   26199.84484091  .00000129  00000+0  53604-4 0  9991
2 69803  88.9927 358.6322 0008047 166.9097 193.2304 14.20114619  2066
QIANFAN-205             
1 69804U 26153E   26199.84168580  .00000103  00000+0  39666-4 0  9998
2 69804  88.9926 358.6315 0007949 170.7350 189.3990 14.22264878  2065
QIANFAN-206             
1 69805U 26153F   26199.83101066  .00000044  00000+0  12973-4 0  9990
2 69805  88.9926 358.6300 0008430 171.4120 188.7218 14.24034641  2060
QIANFAN-207             
1 69806U 26153G   26199.82922186  .00000141  00000+0  54708-4 0  9994
2 69806  88.9926 358.6298 0007870 171.4942 188.6385 14.24251159  2065
