OBJECT_NAME,OBJECT_ID,EPOCH,MEAN_MOTION,ECCENTRICITY,INCLINATION,RA_OF_ASC_NODE,ARG_OF_PERICENTER,MEAN_ANOMALY,EPHEMERIS_TYPE,CLASSIFICATION_TYPE,NORAD_CAT_ID,ELEMENT_SET_NO,REV_AT_EPOCH,BSTAR,MEAN_MOTION_DOT,MEAN_MOTION_DDOT
KUIPER-00619,2026-151Q,2026-07-18T13:18:10.910016,15.38593794,.0002142,51.8809,163.9998,59.8022,300.3177,0,U,69777,999,253,.33569E-3,.12621E-3,0
KUIPER-00621,2026-151R,2026-07-18T14:55:10.942752,15.38363011,.000256,51.8803,163.7041,127.4874,232.6347,0,U,69778,999,254,.65034E-3,.24675E-3,0
KUIPER-00622,2026-151S,2026-07-18T10:34:28.737696,15.36968365,.00067524,51.8742,164.7371,157.7973,202.3307,0,U,69779,999,251,.23230879E-3,.8153E-4,0
KUIPER-00623,2026-151T,2026-07-17T06:22:24.548160,15.37672053,.0006129,51.8777,170.3650,146.6000,213.5375,0,U,69780,999,233,.3498E-2,.133416E-2,0
KUIPER-00626,2026-151U,2026-07-18T09:19:23.049408,15.34990807,.00076691,51.8720,165.1335,171.5528,188.5588,0,U,69781,999,250,-.27074801E-3,-.9712E-4,0
KUIPER-00627,2026-151V,2026-07-18T09:22:25.045824,15.34693182,.00108229,51.8693,165.1438,175.1356,184.9736,0,U,69782,999,250,-.13893961E-2,-.47612E-3,0
KUIPER-00629,2026-151W,2026-07-18T20:00:01.999008,15.29905620,.000687,51.8784,162.9703,168.2182,156.5463,0,U,69783,999,290,.16609E-2,.4878E-3,0
KUIPER-00631,2026-151X,2026-07-18T20:00:01.999008,15.30914509,.0008439,51.8748,162.9532,168.1566,156.0841,0,U,69784,999,130,-.39009E-1,-.1085207E-1,0
KUIPER-00634,2026-151Y,2026-07-18T21:18:20.035296,15.37799885,.0003602,51.8779,162.4879,144.1603,215.9626,0,U,69785,999,258,.35348E-3,.12966E-3,0
KUIPER-00639,2026-151Z,2026-07-18T12:22:36.793632,15.35139815,.001008,51.8694,164.4837,174.1474,185.9631,0,U,69786,999,252,.67781E-3,.23193E-3,0
KUIPER-00641,2026-151AA,2026-07-18T16:00:03.998880,15.34501817,.0011939,51.8679,163.8314,170.4788,267.0344,0,U,69787,999,318,.93043E-4,.2779E-4,0
KUIPER-00644,2026-151AB,2026-07-18T20:00:01.999008,15.36517909,.0008399,51.8747,162.8945,171.9198,175.2832,0,U,69788,999,350,.13982E-2,.50607E-3,0
KUIPER-00646,2026-151AC,2026-07-18T12:21:04.641120,15.35875674,.0009142,51.8704,164.4782,177.9379,182.1646,0,U,69789,999,252,.68987E-3,.24178E-3,0
KUIPER-00647,2026-151AD,2026-07-18T09:20:35.448288,15.35105780,.0010638,51.8665,165.1337,176.4406,183.6657,0,U,69790,999,250,-.34048503E-4,-.1567E-4,0
KUIPER-00662,2026-151AE,2026-07-18T20:03:23.427648,15.36542483,.0008303,51.8746,162.8842,171.4879,188.6250,0,U,69791,999,257,.31424E-3,.11019E-3,0
LINK,2026-152A,2026-07-18T13:22:51.214944,15.67914384,.0024958,20.5910,301.5041,41.6624,318.5720,0,U,69792,999,238,.77286E-3,.92753E-3,0
2026-152B,2026-152B,2026-07-18T13:43:43.415328,15.65017636,.0023039,20.5978,301.6626,39.7805,320.4327,0,U,69793,999,238,.31521E-3,.33875E-3,0
ISS OBJECT YJ,1998-067YJ,2026-07-18T09:39:50.209344,15.50153314,.00077263,51.6313,145.5127,322.8487,37.1967,0,U,69794,999,249,.33749314E-3,.18972E-3,0
ISS OBJECT YK,1998-067YK,2026-07-18T03:21:06.249024,15.50914604,.00066267,51.6313,146.7573,329.4507,30.6095,0,U,69795,999,245,.61066647E-3,.35727E-3,0
ISS OBJECT YL,1998-067YL,2026-07-18T01:50:23.032608,15.50628198,.00087195,51.6315,147.0863,322.6666,37.3717,0,U,69796,999,243,.49057354E-3,.28307E-3,0
ISS OBJECT YM,1998-067YM,2026-07-18T03:22:42.429504,15.50677012,.00095277,51.6314,146.7645,314.1271,45.8934,0,U,69797,999,243,.50205193E-3,.29042E-3,0
ISS OBJECT YN,1998-067YN,2026-07-18T01:51:30.396960,15.50414888,.00091903,51.6317,147.0913,325.6783,34.3611,0,U,69798,999,244,.32670208E-3,.18532E-3,0
PROVES-ELECTRA,1998-067YP,2026-07-17T04:10:34.012992,15.50615173,.00097002,51.6315,151.5587,310.8273,49.1874,0,U,69799,999,229,.41820358E-3,.24046E-3,0
QIANFAN-201,2026-153A,2026-07-18T04:31:31.913184,14.22000035,.0006905,88.9921,358.7016,149.7286,210.4306,0,U,69800,999,197,-.84414E+0,-.1723216E-1,0
QIANFAN-202,2026-153B,2026-07-18T20:23:18.400128,14.18843900,.0007089,88.9927,358.6330,163.4691,196.6730,0,U,69801,999,206,.75477E-4,.171E-5,0
QIANFAN-203,2026-153C,2026-07-18T08:19:06.493152,14.17511061,.0012649,88.9920,358.6881,191.3457,168.7448,0,U,69802,999,199,-.99096E+0,-.1871829E-1,0
QIANFAN-204,2026-153D,2026-07-18T20:16:34.254624,14.20114619,.0008047,88.9927,358.6322,166.9097,193.2304,0,U,69803,999,206,.53604E-4,.129E-5,0
QIANFAN-205,2026-153E,2026-07-18T20:12:01.653120,14.22264878,.0007949,88.9926,358.6315,170.7350,189.3990,0,U,69804,999,206,.39666E-4,.103E-5,0
QIANFAN-206,2026-153F,2026-07-18T19:56:39.321024,14.24034641,.000843,88.9926,358.6300,171.4120,188.7218,0,U,69805,999,206,.12973E-4,.44E-6,0
QIANFAN-207,2026-153G,2026-07-18T19:54:04.768704,14.24251159,.000787,88.9926,358.6298,171.4942,188.6385,0,U,69806,999,206,.54708E-4,.141E-5,0
